NORAD_CAT_ID,OBJECT_NAME,OBJECT_TYPE,EPOCH,MEAN_MOTION,ECCENTRICITY,INCLINATION,RA_OF_ASC_NODE,ARG_OF_PERICENTER,MEAN_ANOMALY,BSTAR,MEAN_MOTION_DOT,MEAN_MOTION_DDOT,TLE_LINE0,TLE_LINE1,TLE_LINE2,SEMIMAJOR_AXIS,PERIOD,APOGEE,PERIGEE,DECAYED
51988.0,STARLINK-3640,PAYLOAD,2024-06-22 15:43:09,15.08838614,0.0001127,53.2181,325.0158,88.2392,271.8729,4.5998e-05,4.44e-06,0.0,0 STARLINK-3640,1 51988U 22025AJ  24174.65497568  .00000444  00000-0  45998-4 0  9991,2 51988  53.2181 325.0158 0001127  88.2392 271.8729 15.08838614126706,6917.885,95.438,540.529,538.97,0.0
51988.0,STARLINK-3640,PAYLOAD,2024-06-23 13:58:33,15.08839232,0.0001239,53.2182,320.8494,99.2001,260.9131,7.9427e-05,9.76e-06,0.0,0 STARLINK-3640,1 51988U 22025AJ  24175.58233503  .00000976  00000-0  79427-4 0  9995,2 51988  53.2182 320.8494 0001239  99.2001 260.9131 15.08839232126844,6917.883,95.438,540.605,538.891,0.0
51988.0,STARLINK-3640,PAYLOAD,2024-06-23 18:44:42,15.08842513,0.0001199,53.2178,319.9557,82.7031,277.4097,0.00010275,1.348e-05,0.0,0 STARLINK-3640,1 51988U 22025AJ  24175.78105292  .00001348  00000-0  10275-3 0  9999,2 51988  53.2178 319.9557 0001199  82.7031 277.4097 15.08842513127989,6917.873,95.437,540.567,538.908,0.0
51988.0,STARLINK-3640,PAYLOAD,2024-06-24 13:49:20,15.08839824,0.0001252,53.2181,316.3863,81.5467,278.5667,5.0771e-05,5.2e-06,0.0,0 STARLINK-3640,1 51988U 22025AJ  24176.57593619  .00000520  00000-0  50771-4 0  9998,2 51988  53.2181 316.3863 0001252  81.5467 278.5667 15.08839824126990,6917.881,95.438,540.612,538.88,0.0
51988.0,STARLINK-3640,PAYLOAD,2024-06-24 17:00:06,15.08846732,0.0001433,53.2189,315.7929,78.0916,282.0236,3.2644e-05,2.32e-06,0.0,0 STARLINK-3640,1 51988U 22025AJ  24176.70841346  .00000232  00000-0  32644-4 0  9995,2 51988  53.2189 315.7929 0001433  78.0916 282.0236 15.08846732127017,6917.86,95.437,540.716,538.733,0.0
51988.0,STARLINK-3640,PAYLOAD,2024-06-25 13:40:07,15.08843483,0.0001781,53.2194,311.9265,60.3076,299.8093,3.7497e-05,3.09e-06,0.0,0 STARLINK-3640,1 51988U 22025AJ  24177.56953529  .00000309  00000-0  37497-4 0  9993,2 51988  53.2194 311.9265 0001781  60.3076 299.8093 15.08843483127142,6917.87,95.437,540.967,538.503,0.0
51988.0,STARLINK-3640,PAYLOAD,2024-06-25 16:50:53,15.08847729,0.0001463,53.2195,311.3308,75.3022,284.8132,6.9523e-05,8.19e-06,0.0,0 STARLINK-3640,1 51988U 22025AJ  24177.70200979  .00000819  00000-0  69523-4 0  9994,2 51988  53.2195 311.3308 0001463  75.3022 284.8132 15.08847729128279,6917.857,95.437,540.734,538.71,0.0
51988.0,STARLINK-3640,PAYLOAD,2024-06-26 02:23:12,15.08842198,0.0001142,53.2188,309.5482,100.7343,259.3778,5.5826e-05,6.01e-06,0.0,0 STARLINK-3640,1 51988U 22025AJ  24178.09945118  .00000601  00000-0  55826-4 0  9998,2 51988  53.2188 309.5482 0001142 100.7343 259.3778 15.08842198128331,6917.874,95.437,540.529,538.949,0.0
51988.0,STARLINK-3640,PAYLOAD,2024-06-27 11:46:18,15.08837377,0.0001578,53.2182,303.302,127.6142,232.4993,7.4013e-05,8.9e-06,0.0,0 STARLINK-3640,1 51988U 22025AJ  24179.49049313  .00000890  00000-0  74013-4 0  9994,2 51988  53.2182 303.3020 0001578 127.6142 232.4993 15.08837377128540,6917.888,95.438,540.845,538.662,0.0
51988.0,STARLINK-3640,PAYLOAD,2024-06-27 19:43:14,15.08843786,0.0001224,53.2177,301.8196,102.2525,257.8604,3.5632e-05,2.79e-06,0.0,0 STARLINK-3640,1 51988U 22025AJ  24179.82169184  .00000279  00000-0  35632-4 0  9995,2 51988  53.2177 301.8196 0001224 102.2525 257.8604 15.08843786127486,6917.869,95.437,540.581,538.887,0.0
51988.0,STARLINK-3640,PAYLOAD,2024-06-28 13:12:27,15.08853348,0.0001269,53.2168,298.5485,101.7106,258.4028,0.00019728,2.854e-05,0.0,0 STARLINK-3640,1 51988U 22025AJ  24180.55032283  .00002854  00000-0  19728-3 0  9994,2 51988  53.2168 298.5485 0001269 101.7106 258.4028 15.08853348128705,6917.84,95.437,540.582,538.827,0.0
51988.0,STARLINK-3640,PAYLOAD,2024-06-28 14:47:50,15.08855397,0.0001057,53.2172,298.2513,82.4092,277.702,0.00022465,3.291e-05,0.0,0 STARLINK-3640,1 51988U 22025AJ  24180.61656120  .00003291  00000-0  22465-3 0  9991,2 51988  53.2172 298.2513 0001057  82.4092 277.7020 15.08855397127603,6917.833,95.437,540.43,538.967,0.0
51988.0,STARLINK-3640,PAYLOAD,2024-06-29 00:20:10,15.08838842,0.0001271,53.2174,296.4663,85.123,274.9907,6.9704e-05,8.22e-06,0.0,0 STARLINK-3640,1 51988U 22025AJ  24181.01401489  .00000822  00000-0  69704-4 0  9997,2 51988  53.2174 296.4663 0001271  85.1230 274.9907 15.08838842128771,6917.884,95.438,540.628,538.87,0.0
51988.0,STARLINK-3640,PAYLOAD,2024-06-29 11:27:54,15.08825704,0.0001423,53.2165,294.3857,96.3324,263.783,-2.9931e-05,-7.64e-06,0.0,0 STARLINK-3640,1 51988U 22025AJ  24181.47771098 -.00000764  00000-0 -29931-4 0  9998,2 51988  53.2165 294.3857 0001423  96.3324 263.7830 15.08825704128842,6917.924,95.438,540.774,538.805,0.0
51988.0,STARLINK-3640,PAYLOAD,2024-06-29 14:38:39,15.08833575,0.000109,53.2171,293.7905,93.2525,266.8592,3.0251e-05,1.94e-06,0.0,0 STARLINK-3640,1 51988U 22025AJ  24181.61018361  .00000194  00000-0  30251-4 0  9993,2 51988  53.2171 293.7905 0001090  93.2525 266.8592 15.08833575127758,6917.9,95.438,540.519,539.011,0.0
51988.0,STARLINK-3640,PAYLOAD,2024-06-30 14:29:26,15.08848497,0.0001066,53.216,289.3311,103.716,256.3951,-2.7565e-05,-7.27e-06,0.0,0 STARLINK-3640,1 51988U 22025AJ  24182.60377986 -.00000727  00000-0 -27565-4 0  9992,2 51988  53.2160 289.3311 0001066 103.7160 256.3951 15.08848497127902,6917.854,95.437,540.457,538.982,0.0
51988.0,STARLINK-3640,PAYLOAD,2024-07-01 12:44:48,15.08915792,8.09e-05,53.2157,285.1693,129.7467,230.3596,-0.00094719,-0.00015362,0.0,0 STARLINK-3640,1 51988U 22025AJ  24183.53111682 -.00015362  00000-0 -94719-3 0  9999,2 51988  53.2157 285.1693 0000809 129.7467 230.3596 15.08915792129156,6917.649,95.433,540.073,538.954,0.0
51988.0,STARLINK-3640,PAYLOAD,2024-07-01 14:20:13,15.08836751,0.0001254,53.2148,284.8717,114.3083,245.804,0.00032549,4.896e-05,0.0,0 STARLINK-3640,1 51988U 22025AJ  24183.59738156  .00004896  00000-0  32549-3 0  9997,2 51988  53.2148 284.8717 0001254 114.3083 245.8040 15.08836751128058,6917.89,95.438,540.623,538.888,0.0
51988.0,STARLINK-3640,PAYLOAD,2024-07-01 15:55:36,15.08849084,9.04e-05,53.2139,284.5723,101.914,258.1953,0.00029877,4.472e-05,0.0,0 STARLINK-3640,1 51988U 22025AJ  24183.66361873  .00004472  00000-0  29877-3 0  9993,2 51988  53.2139 284.5723 0000904 101.9140 258.1953 15.08849084129176,6917.853,95.437,540.343,539.092,0.0
51988.0,STARLINK-3640,PAYLOAD,2024-07-02 12:35:37,15.08845258,0.0001038,53.2156,280.6987,79.8109,280.3,4.4644e-05,4.23e-06,0.0,0 STARLINK-3640,1 51988U 22025AJ  24184.52474310  .00000423  00000-0  44644-4 0  9992,2 51988  53.2156 280.6987 0001038  79.8109 280.3000 15.08845258129305,6917.864,95.437,540.447,539.011,0.0
51988.0,STARLINK-3640,PAYLOAD,2024-07-03 12:26:24,15.08849989,9.65e-05,53.2152,276.2469,98.191,261.9191,1.5029e-05,-4.9e-07,0.0,0 STARLINK-3640,1 51988U 22025AJ  24185.51833960 -.00000049  00000-0  15029-4 0  9992,2 51988  53.2152 276.2469 0000965  98.1910 261.9191 15.08849989128343,6917.85,95.437,540.382,539.047,0.0
51988.0,STARLINK-3640,PAYLOAD,2024-07-03 23:34:06,15.08847535,9.99e-05,53.215,274.1658,81.4107,278.6998,1.2643e-05,-8.7e-07,0.0,0 STARLINK-3640,1 51988U 22025AJ  24185.98201942 -.00000087  00000-0  12643-4 0  9993,2 51988  53.2150 274.1658 0000999  81.4107 278.6998 15.08847535129524,6917.857,95.437,540.413,539.031,0.0
51988.0,STARLINK-3640,PAYLOAD,2024-07-04 12:17:12,15.08844185,0.0001256,53.2165,271.7862,102.8789,257.2343,-4.8629e-05,-1.062e-05,0.0,0 STARLINK-3640,1 51988U 22025AJ  24186.51194456 -.00001062  00000-0 -48629-4 0  9992,2 51988  53.2165 271.7862 0001256 102.8789 257.2343 15.08844185129605,6917.868,95.437,540.601,538.864,0.0
51988.0,STARLINK-3640,PAYLOAD,2024-07-05 12:07:58,15.08848751,0.0001328,53.2174,267.3258,97.6855,262.4288,8.0245e-05,9.9e-06,0.0,0 STARLINK-3640,1 51988U 22025AJ  24187.50553784  .00000990  00000-0  80245-4 0  9992,2 51988  53.2174 267.3258 0001328  97.6855 262.4288 15.08848751128642,6917.854,95.437,540.637,538.8,0.0
51988.0,STARLINK-3640,PAYLOAD,2024-07-06 11:58:46,15.08835325,0.0001286,53.2162,262.8657,95.2523,264.8616,6.6838e-05,7.76e-06,0.0,0 STARLINK-3640,1 51988U 22025AJ  24188.49914691  .00000776  00000-0  66838-4 0  9993,2 51988  53.2162 262.8657 0001286  95.2523 264.8616 15.08835325129905,6917.895,95.438,540.649,538.87,0.0
51988.0,STARLINK-3640,PAYLOAD,2024-07-06 21:31:05,15.0883704,0.0001168,53.2152,261.0796,88.1586,271.954,2.5299e-05,1.15e-06,0.0,0 STARLINK-3640,1 51988U 22025AJ  24188.89658746  .00000115  00000-0  25299-4 0  9996,2 51988  53.2152 261.0796 0001168  88.1586 271.9540 15.08837040128852,6917.889,95.438,540.562,538.946,0.0
51988.0,STARLINK-3640,PAYLOAD,2024-07-07 10:14:10,15.08841156,0.000123,53.216,258.7014,84.7265,275.3868,-2.6279e-05,-7.06e-06,0.0,0 STARLINK-3640,1 51988U 22025AJ  24189.42650819 -.00000706  00000-0 -26279-4 0  9996,2 51988  53.2160 258.7014 0001230  84.7265 275.3868 15.08841156128936,6917.877,95.437,540.593,538.891,0.0
51988.0,STARLINK-3640,PAYLOAD,2024-07-08 11:40:20,15.08839148,0.0001365,53.216,253.9436,84.4951,275.6197,8.6828e-05,1.094e-05,0.0,0 STARLINK-3640,1 51988U 22025AJ  24190.48634774  .00001094  00000-0  86828-4 0  9991,2 51988  53.2160 253.9436 0001365  84.4951 275.6197 15.08839148130208,6917.883,95.438,540.692,538.804,0.0
51988.0,STARLINK-3640,PAYLOAD,2024-07-08 13:15:43,15.08839862,0.0001375,53.216,253.6463,84.7393,275.3756,9.1468e-05,1.168e-05,0.0,0 STARLINK-3640,1 51988U 22025AJ  24190.55258725  .00001168  00000-0  91468-4 0  9995,2 51988  53.2160 253.6463 0001375  84.7393 275.3756 15.08839862129107,6917.881,95.438,540.697,538.795,0.0
51988.0,STARLINK-3640,PAYLOAD,2024-07-08 21:12:39,15.08836265,0.0001457,53.2166,252.1591,84.2018,275.914,5.9745e-05,6.63e-06,0.0,0 STARLINK-3640,1 51988U 22025AJ  24190.88379121  .00000663  00000-0  59745-4 0  9996,2 51988  53.2166 252.1591 0001457  84.2018 275.9140 15.08836265129151,6917.892,95.438,540.765,538.749,0.0
